sat_config_name,tle_name,norad_id,horizons_id,epoch_tle,t_obs,delta_t_min,incl_deg,raan_deg,ecc,argp_deg,M_deg,mean_motion_rev_per_day,x_sgp4,y_sgp4,z_sgp4,vx_sgp4,vy_sgp4,vz_sgp4,x_true,y_true,z_true,vx_true,vy_true,vz_true,err_x,err_y,err_z,err_vx,err_vy,err_vz,err_norm,horizons_ok,line1,line2
CHANDRA,CXO,25867,-151,2025-11-29T09:28:09.054336+00:00,2025-11-28T15:18:09.054336+00:00,-1090.0,52.7584,123.0489,0.8164697,310.7158,0.2585,0.37803381,20065.65652580903,-112491.54658590829,57742.28071985989,0.45715936264557766,0.5392902182357914,-0.8907422143636927,20078.23457164873,-112487.76590532322,57724.52647284412,0.4564971634564199,0.5400400771820942,-0.8910522648150206,-12.578045839698461,-3.780680585070513,17.754247015771398,0.000662199189157775,-0.0007498589463028615,0.00031005045132792564,22.084249363039543,True,1 25867U 99040B   25333.39454924  .00000722  00000+0  00000+0 0  9995,2 25867  52.7584 123.0489 8164697 310.7158   0.2585  0.37803381 16565
CHANDRA,CXO,25867,-151,2025-11-29T09:28:09.054336+00:00,2025-11-28T15:23:09.054336+00:00,-1085.0,52.7584,123.0489,0.8164697,310.7158,0.2585,0.37803381,20202.54061124781,-112328.68217809699,57474.423708211805,0.4560095406282064,0.545716144128811,-0.8940373497980374,20215.011375674243,-112324.7904940697,57456.71656408298,0.4553458592850047,0.5464672618543104,-0.8943477986688915,-12.47076442643447,-3.8916840272868285,17.707144128828077,0.0006636813432017163,-0.0007511177254994061,0.00031044887085407424,22.004729563140593,True,1 25867U 99040B   25333.39454924  .00000722  00000+0  00000+0 0  9995,2 25867  52.7584 123.0489 8164697 310.7158   0.2585  0.37803381 16565
CHANDRA,CXO,25867,-151,2025-11-29T09:28:09.054336+00:00,2025-11-28T15:28:09.054336+00:00,-1080.0,52.7584,123.0489,0.8164697,310.7158,0.2585,0.37803381,20339.077743303493,-112163.88524283146,57205.57679139786,0.45484527492844956,0.5521694420412507,-0.8973359094205853,20351.440645692826,-112159.88280990304,57187.91744828487,0.4541801203890138,0.5529218044420862,-0.8976467466003455,-12.362902389333613,-4.002432928420603,17.659343112994975,0.000665154539435775,-0.0007523624008354268,0.00031083717976021497,21.925173295031886,True,1 25867U 99040B   25333.39454924  .00000722  00000+0  00000+0 0  9995,2 25867  52.7584 123.0489 8164697 310.7158   0.2585  0.37803381 16565
CHANDRA,CXO,25867,-151,2025-11-29T09:28:09.054336+00:00,2025-11-28T15:33:09.054336+00:00,-1075.0,52.7584,123.0489,0.8164697,310.7158,0.2585,0.37803381,20475.263563282824,-111997.14751271995,56935.73893437102,0.453666396739202,0.5586504394572797,-0.900637938667801,20487.51798954209,-111993.03464091952,56918.12816658625,0.45299977833891447,0.5594040305542323,-0.900949153076672,-12.254426259267348,-4.112871800432913,17.61076778476854,0.000666618400287533,-0.0007535910969526105,0.00031121440887105223,21.845498835221385,True,1 25867U 99040B   25333.39454924  .00000722  00000+0  00000+0 0  9995,2 25867  52.7584 123.0489 8164697 310.7158   0.2585  0.37803381 16565
CHANDRA,CXO,25867,-151,2025-11-29T09:28:09.054336+00:00,2025-11-28T15:38:09.054336+00:00,-1070.0,52.7584,123.0489,0.8164697,310.7158,0.2585,0.37803381,20611.093661348594,-111828.46062132691,56664.909088456625,0.4524727340741649,0.5651594687576664,-0.9039434829285266,20623.239037109055,-111824.2375872251,56647.34760195135,0.4518046608966085,0.5659142741667571,-0.9042550642892537,-12.14537576046132,-4.2230341018148465,17.56148650527757,0.0006680731775564053,-0.0007548054090906753,0.00031158136072717557,21.765798346555975,True,1 25867U 99040B   25333.39454924  .00000722  00000+0  00000+0 0  9995,2 25867  52.7584 123.0489 8164697 310.7158   0.2585  0.37803381 16565
CHANDRA,CXO,25867,-151,2025-11-29T09:28:09.054336+00:00,2025-11-28T15:43:09.054336+00:00,-1065.0,52.7584,123.0489,0.8164697,310.7158,0.2585,0.37803381,20746.563575560842,-111657.81610168701,56393.08619136816,0.45126411169669867,0.5716968673200711,-0.907252587536324,20758.59929310411,-111653.4832388032,56375.57476917958,0.45059459321315615,0.5724528707553246,-0.9075645245962712,-12.03571754326913,-4.3328628838207806,17.51142218858149,0.0006695184835425194,-0.000756003435253505,0.00031193705994725374,21.685988670523926,True,1 25867U 99040B   25333.39454924  .00000722  00000+0  00000+0 0  9995,2 25867  52.7584 123.0489 8164697 310.7158   0.2585  0.37803381 16565
CHANDRA,CXO,25867,-151,2025-11-29T09:28:09.054336+00:00,2025-11-28T15:48:09.054336+00:00,-1060.0,52.7584,123.0489,0.8164697,310.7158,0.2585,0.37803381,20881.668790892858,-111485.20538478918,56120.269167225015,0.45004035104671225,0.5782629776218248,-0.9105652977614008,20893.594282056125,-111480.76299243522,56102.8085236675,0.44936939647011714,0.5790201644007417,-0.9108775800705146,-11.925491163266997,-4.442392353957985,17.460643557511503,0.0006709545765951064,-0.0007571867789168962,0.00031228230911373167,21.60616261056395,True,1 25867U 99040B   25333.39454924  .00000722  00000+0  00000+0 0  9995,2 25867  52.7584 123.0489 8164697 310.7158   0.2585  0.37803381 16565
CHANDRA,CXO,25867,-151,2025-11-29T09:28:09.054336+00:00,2025-11-28T15:53:09.054336+00:00,-1055.0,52.7584,123.0489,0.8164697,310.7158,0.2585,0.37803381,21016.40473823306,-111310.61979802781,55846.45692657256,0.44880127016547117,0.584858147345296,-0.9138816588020888,21028.21940192595,-111306.0682335517,55829.04785331864,0.4481288891041481,0.5856165008712968,-0.914194274936358,-11.814663692890463,-4.551564476103522,17.409073253918905,0.0006723810613230574,-0.0007583535260008434,0.00031261613426913915,21.526236292407138,True,1 25867U 99040B   25333.39454924  .00000722  00000+0  00000+0 0  9995,2 25867  52.7584 123.0489 8164697 310.7158   0.2585  0.37803381 16565
CHANDRA,CXO,25867,-151,2025-11-29T09:28:09.054336+00:00,2025-11-28T15:58:09.054336+00:00,-1050.0,52.7584,123.0489,0.8164697,310.7158,0.2585,0.37803381,21150.76679334702,-111134.05056362541,55571.64836640532,0.44754668361837935,0.591482729485832,-0.9172017157758641,21162.470067799877,-111129.39014948197,55554.29158613804,0.44687288541614173,0.5922422347718189,-0.9175146551128122,-11.70327445285875,-4.6604141434363555,17.356780267284194,0.0006737982022376188,-0.0007595052859868945,0.0003129393369480926,21.44630304164482,True,1 25867U 99040B   25333.39454924  .00000722  00000+0  00000+0 0  9995,2 25867  52.7584 123.0489 8164697 310.7158   0.2585  0.37803381 16565
CHANDRA,CXO,25867,-151,2025-11-29T09:28:09.054336+00:00,2025-11-28T16:03:09.054336+00:00,-1045.0,52.7584,123.0489,0.8164697,310.7158,0.2585,0.37803381,21284.75027579705,-110955.48879702574,55295.84237019257,0.4462764024156959,0.5981370824623354,-0.9205255137098759,21296.34156660805,-110950.71991500628,55278.53868354972,0.44560119682092497,0.5988977225871157,-0.920838764650613,-11.591290811000363,-4.768882019459852,17.30368664285197,0.0006752055947709112,-0.0007606401247802763,0.0003132509407370865,21.366277865241823,True,1 25867U 99040B   25333.39454924  .00000722  00000+0  00000+0 0  9995,2 25867  52.7584 123.0489 8164697 310.7158   0.2585  0.37803381 16565
CHANDRA,CXO,25867,-151,2025-11-29T09:28:09.054336+00:00,2025-11-28T16:08:09.054336+00:00,-1040.0,52.7584,123.0489,0.8164697,310.7158,0.2585,0.37803381,21418.350447911496,-110774.92550523947,55019.037807906716,0.44499023393060555,0.6048215702309468,-0.9238530975309773,21429.82918212805,-110770.04852561039,55001.787982974005,0.4443136305923925,0.6055833290018733,-0.9241666488362905,-11.478734216554585,-4.876979629087145,17.249824932710908,0.0006766033382130665,-0.0007617587709264351,0.00031355130531318665,21.286209848773147,True,1 25867U 99040B   25333.39454924  .00000722  00000+0  00000+0 0  9995,2 25867  52.7584 123.0489 8164697 310.7158   0.2585  0.37803381 16565
CHANDRA,CXO,25867,-151,2025-11-29T09:28:09.054336+00:00,2025-11-28T16:13:09.054336+00:00,-1035.0,52.7584,123.0489,0.8164697,310.7158,0.2585,0.37803381,21551.56251364319,-110592.35158517143,54741.23353605576,0.443687981815428,0.6115365624012504,-0.9271845120552282,21562.92813945135,-110587.36686593572,54724.03830818572,0.4430099902767976,0.6122994243607472,-0.9274983528435401,-11.365625808157347,-4.984719235711964,17.19522787004098,0.000677991538630407,-0.0007628619594968189,0.0003138407883118699,21.206148574707367,True,1 25867U 99040B   25333.39454924  .00000722  00000+0  00000+0 0  9995,2 25867  52.7584 123.0489 8164697 310.7158   0.2585  0.37803381 16565
CHANDRA,CXO,25867,-151,2025-11-29T09:28:09.054336+00:00,2025-11-28T16:18:09.054336+00:00,-1030.0,52.7584,123.0489,0.8164697,310.7158,0.2585,0.37803381,21684.381617450643,-110407.75782190388,54462.42839771717,0.44236944591516675,0.6182824343556637,-0.9305198019768439,21695.63355082088,-110402.6657823863,54445.2885811075,0.4416900761379882,0.6190463820808857,-0.9308339203863039,-11.251933370236657,-5.092039517578087,17.13981660966965,0.000679369777178529,-0.0007639477252220361,0.0003141184094599403,21.126007299769867,True,1 25867U 99040B   25333.39454924  .00000722  00000+0  00000+0 0  9995,2 25867  52.7584 123.0489 8164697 310.7158   0.2585  0.37803381 16565
CHANDRA,CXO,25867,-151,2025-11-29T09:28:09.054336+00:00,2025-11-28T16:23:09.054336+00:00,-1025.0,52.7584,123.0489,0.8164697,310.7158,0.2585,0.37803381,21816.802843142625,-110221.13488694455,54182.62122257723,0.44103442217864014,0.6250595673718322,-0.9338590118565746,21827.940539219853,-110215.93590929956,54165.53756091781,0.4403536838400557,0.6258245850860198,-0.9341733968345693,-11.137696077228611,-5.198977644991828,17.08366165942425,0.0006807383385844523,-0.0007650177141875769,0.00031438497799474163,21.045881738609115,True,1 25867U 99040B   25333.39454924  .00000722  00000+0  00000+0 0  9995,2 25867  52.7584 123.0489 8164697 310.7158   0.2585  0.37803381 16565
